SHIELDS 1               
1 43850U 18104B   22328.11385856  .00003556  00000+0  14111-3 0  9997
2 43850  85.0250 306.1832 0015494  45.1130 315.1368 15.24864959218823
STF-1                   
1 43852U 18104D   22327.65449420  .00010338  00000+0  35124-3 0  9998
2 43852  85.0264 306.2008 0014517  57.6503 302.6146 15.30222418218856
ZACUBE-2                
1 43907U 18111AH  22328.20741042  .00009098  00000+0  30837-3 0  9991
2 43907  97.1662 208.8750 0016686 227.8225 250.0920 15.30636834217705
LUME 1                  
1 43908U 18111AJ  22328.41565165  .00010154  00000+0  30906-3 0  9997
2 43908  97.1675 211.3057 0015040 216.3413 143.6810 15.34080578217880
AOBA VELOX-IV           
1 43940U 19003J   22327.83176658  .00033529  00000+0  64391-3 0  9990
2 43940  97.1096 359.7858 0011303 288.6846  71.3178 15.47822330214682
MOVE-IIB                
1 44398U 19038N   22328.47797671  .00014254  00000+0  60145-3 0  9998
2 44398  97.6466 299.8921 0017419 299.1028  60.8461 15.23267217187356
SONATE                  
1 44400U 19038Q   22327.86131320  .00005772  00000+0  29906-3 0  9992
2 44400  97.6604 297.4193 0021195 307.0298  52.8998 15.16401790187076
LUCKY-7                 
1 44406U 19038W   22328.40694630  .00006290  00000+0  31397-3 0  9990
2 44406  97.6588 298.6977 0019949 302.3572  57.5730 15.17696435187207
BEESAT 9                
1 44412U 19038AC  22327.89629488  .00007736  00000+0  36174-3 0  9992
2 44412  97.6552 298.8087 0017158 308.4764  51.4930 15.19934747186880
JAISAT-1                
1 44419U 19038F   22327.89856358  .00007774  00000+0  35892-3 0  9995
2 44419  97.6551 299.7702 0016052 305.4082  54.5652 15.20389252187256
DUCHIFAT-3              
1 44854U 19089C   22328.12079125  .00004046  00000+0  30554-3 0  9999
2 44854  36.9651 232.9933 0006169  69.4330  69.1916 15.02390848161948
EYESAT-NANO             
1 44877U 19092E   22327.46297314  .00010164  00000+0  39280-3 0  9999
2 44877  97.4595 151.1121 0010929 152.9690 207.2120 15.26381663162583
ORBITAL FACTORY 2 (OF-2)
1 45113U 19071C   22327.43278218  .00038326  00000+0  52266-3 0  9998
2 45113  51.6351 351.7937 0011601  36.6684 323.5100 15.57047247158037
M2 PATHFINDER           
1 45727U 20037E   22327.74310717  .00000611  00000+0  64991-4 0  9993
2 45727  97.7398 140.4502 0011602 225.5879 134.4380 14.92507064130582
NETSAT-4                
1 46504U 20068U   22327.79927339  .00002571  00000+0  18802-3 0  9996
2 46504  97.7394 267.4853 0012210 139.0685 221.1460 15.04470894117998
NETSAT-3                
1 46505U 20068V   22327.81936113  .00002540  00000+0  18602-3 0  9994
2 46505  97.7400 267.3974 0011405 145.0926 215.1049 15.04432933118001
NETSAT-1                
1 46506U 20068W   22327.77535025  .00003475  00000+0  25324-3 0  9994
2 46506  97.7380 267.2662 0009487 155.3206 204.8477 15.04382528117995
NETSAT-2                
1 46507U 20068X   22327.78643948  .00003700  00000+0  26944-3 0  9990
2 46507  97.7374 267.2697 0008341 162.4245 197.7272 15.04377470117945
SAI-1 NANOCONNECT-2     
1 47701U 21015C   22327.78608317  .00011630  00000+0  38275-3 0  9992
2 47701  97.4112  44.2245 0009197 244.9541 115.0746 15.31626033 96561
WILDTRACKCUBE-SIMBA     
1 47941U 21022K   22328.26755152  .00004394  00000+0  28439-3 0  9990
2 47941  97.5152 224.3388 0019756 324.6730 187.6941 15.08523212 92072
BEESAT-6                
1 47957U 21022AB  22327.94725900  .00007684  00000+0  46162-3 0  9997
2 47957  97.5108 224.4998 0018949 326.4019  89.9430 15.11022069 91862
SMOG-1                  
1 47964U 21022AJ  22327.70105503  .00006384  00000+0  36839-3 0  9996
2 47964  97.5154 225.6825 0016287 315.4729  44.5192 15.12583330 90935
MMSATS-1                
1 47976U 98067SJ  22328.23873402  .00044438  00000+0  37076-3 0  9997
2 47976  51.6375 237.5187 0003356 137.4653 359.1981 15.69597545 95254
BCCSAT-1                
1 48041U 21022AK  22327.71889960  .00006101  00000+0  36348-3 0  9992
2 48041  97.5161 225.1040 0013173 315.3867  44.6302 15.11487756 90878
BEESAT-5                
1 48083U 21022AM  22327.26456865  .00009344  00000+0  55343-3 0  9990
2 48083  97.5117 223.8650 0018228 327.7848 159.7663 15.11482730 90896
BEESAT-7                
1 48084U 21022AN  22327.80229932  .00008320  00000+0  49655-3 0  9996
2 48084  97.5086 224.3836 0019038 326.8237 106.4126 15.11229036 90561
BEESAT-8                
1 48085U 21022AP  22327.95335738  .00005449  00000+0  33172-3 0  9991
2 48085  97.5095 224.4881 0019022 326.3165  90.8314 15.10671021 91145
LEDSAT                  
1 49069U 21073D   22328.16405402  .00003516  00000+0  21793-3 0  9999
2 49069  97.5093  37.8820 0027592 106.2711 254.1556 15.10089229 69925
HSU-SAT1                
1 53462U 98067UB  22328.18922394  .00049405  00000+0  57676-3 0  9990
2 53462  51.6375 259.9856 0009871 136.3990 223.7785 15.61063922 16162
FUTABA                  
1 53463U 98067UC  22328.25666829  .00065343  00000+0  69026-3 0  9998
2 53463  51.6362 258.9311 0010548 135.8562 224.3276 15.63510281 16187
TUMNANOSAT              
1 53464U 98067UD  22328.19636239  .00087286  00000+0  82929-3 0  9991
2 53464  51.6365 258.5258 0011156 134.8084 225.3821 15.66052586 16180
